[{"OBJECT_NAME":"STARLINK-30224","OBJECT_ID":"2023-102N","EPOCH":"2026-03-09T22:00:01.999584","MEAN_MOTION":15.1597228,"ECCENTRICITY":0.00017033,"INCLINATION":43.0005,"RA_OF_ASC_NODE":246.5259,"ARG_OF_PERICENTER":277.718,"MEAN_ANOMALY":82.2955,"EPHEMERIS_TYPE":0,"CLASSIFICATION_TYPE":"U","NORAD_CAT_ID":57416,"ELEMENT_SET_NO":999,"REV_AT_EPOCH":577,"BSTAR":0.0051457482,"MEAN_MOTION_DOT":0.00101766,"MEAN_MOTION_DDOT":0},{"OBJECT_NAME":"CHUBUSAT-3","OBJECT_ID":"2016-012C","EPOCH":"2026-03-09T22:11:59.804736","MEAN_MOTION":15.17633969,"ECCENTRICITY":0.00091539,"INCLINATION":31.0042,"RA_OF_ASC_NODE":259.576,"ARG_OF_PERICENTER":133.2555,"MEAN_ANOMALY":226.885,"EPHEMERIS_TYPE":0,"CLASSIFICATION_TYPE":"U","NORAD_CAT_ID":41339,"ELEMENT_SET_NO":999,"REV_AT_EPOCH":55310,"BSTAR":0.00036072373,"MEAN_MOTION_DOT":7.561e-5,"MEAN_MOTION_DDOT":0}]
